[{"OBJECT_NAME":"STARLINK-4609","OBJECT_ID":"2022-104AH","EPOCH":"2026-03-09T17:54:51.031008","MEAN_MOTION":15.08822218,"ECCENTRICITY":0.00011624,"INCLINATION":53.2168,"RA_OF_ASC_NODE":233.8605,"ARG_OF_PERICENTER":88.6909,"MEAN_ANOMALY":271.4217,"EPHEMERIS_TYPE":0,"CLASSIFICATION_TYPE":"U","NORAD_CAT_ID":53619,"ELEMENT_SET_NO":999,"REV_AT_EPOCH":19564,"BSTAR":-3.7526166e-5,"MEAN_MOTION_DOT":-8.85e-6,"MEAN_MOTION_DDOT":0},{"OBJECT_NAME":"H-2A R\/B","OBJECT_ID":"2009-002J","EPOCH":"2026-03-09T23:38:52.170720","MEAN_MOTION":15.01829324,"ECCENTRICITY":0.00333022,"INCLINATION":98.2328,"RA_OF_ASC_NODE":87.9691,"ARG_OF_PERICENTER":111.7239,"MEAN_ANOMALY":248.7534,"EPHEMERIS_TYPE":0,"CLASSIFICATION_TYPE":"U","NORAD_CAT_ID":33500,"ELEMENT_SET_NO":999,"REV_AT_EPOCH":92943,"BSTAR":0.00033449169,"MEAN_MOTION_DOT":4.347e-5,"MEAN_MOTION_DDOT":0}]
